{"type": "FeatureCollection", "features": [{"type": "Feature", "properties": {"name": "Odisha"}, "geometry": {"type": "MultiPolygon", "coordinates": [[[[82.3381, 18.328], [82.3559, 18.3159], [82.3751, 18.3287], [82.389, 18.3285], [82.3923, 18.2979], [82.3765, 18.2807], [82.3447, 18.2805], [82.3334, 18.2529], [82.3365, 18.2408], [82.3245, 18.232], [82.3371, 18.2243], [82.3108, 18.2041], [82.3155, 18.184], [82.3534, 18.1717], [82.3723, 18.1482], [82.3632, 18.1348], [82.3397, 18.1498], [82.3358, 18.1059], [82.347, 18.0982], [82.3518, 18.0769], [82.3439, 18.058], [82.3341, 18.0513], [82.3223, 18.0599], [82.3204, 18.045], [82.3082, 18.0449], [82.3101, 18.0542], [82.2987, 18.0553], [82.3044, 18.0681], [82.2825, 18.064], [82.2616, 18.0419], [82.2734, 18.0224], [82.2688, 18.0009], [82.2507, 17.9977], [82.2222, 18.0017], [82.2053, 18.0184], [82.1786, 18.0204], [82.1843, 18.0288], [82.1688, 18.052], [82.1466, 18.0523], [82.1372, 18.0439], [82.1345, 18.0594], [82.102, 18.0602], [82.0766, 18.0752], [82.0616, 18.0555], [82.0404, 18.0573], [82.0323, 18.0693], [82.0074, 18.0563], [82.0093, 18.0301], [81.9943, 18.0273], [81.963, 17.9993], [81.9199, 17.9912], [81.9052, 17.9773], [81.8665, 17.9633], [81.8099, 17.951], [81.7901, 17.9208], [81.7258, 17.879], [81.7092, 17.872], [81.6985, 17.9014], [81.6861, 17.8853], [81.6697, 17.8866], [81.6422, 17.8419], [81.6223, 17.8334], [81.6172, 17.8223], [81.5743, 17.8372], [81.5637, 17.8257], [81.49, 17.8127], [81.4739, 17.838], [81.4444, 17.825], [81.4341, 17.8319], [81.4156, 17.8134], [81.4011, 17.821], [81.3918, 17.8154], [81.3891, 17.8299], [81.4038, 17.853], [81.3942, 17.8701], [81.4002, 17.8936], [81.4126, 17.8946], [81.4353, 17.8808], [81.4467, 17.8879], [81.4534, 17.914], [81.4491, 17.9319], [81.483, 17.9768], [81.4804, 18.0507], [81.5129, 18.0987], [81.5138, 18.1405], [81.5258, 18.1534], [81.507, 18.1859], [81.5303, 18.2399], [81.5252, 18.2577], [81.5353, 18.2684], [81.5643, 18.2752], [81.5976, 18.3089], [81.6165, 18.3073], [81.6622, 18.3212], [81.6498, 18.3355], [81.6591, 18.3466], [81.7501, 18.3528], [81.7689, 18.4171], [81.8562, 18.4914], [81.8682, 18.5249], [81.8797, 18.5252], [81.8893, 18.5382], [81.909, 18.5381], [81.9014, 18.5486], [81.9117, 18.5712], [81.9506, 18.57], [81.963, 18.5948], [81.9422, 18.6017], [81.9217, 18.6229], [81.8946, 18.6295], [81.8938, 18.6575], [81.9009, 18.6614], [81.9217, 18.6429], [81.9489, 18.6437], [81.9551, 18.6642], [81.9691, 18.6734], [81.9608, 18.6886], [81.9701, 18.6981], [82.0309, 18.7238], [82.0628, 18.719], [82.0674, 18.7265], [82.085, 18.7186], [82.0913, 18.7385], [82.0887, 18.7602], [82.1191, 18.7698], [82.1334, 18.7654], [82.1335, 18.7804], [82.1596, 18.7875], [82.1654, 18.8008], [82.1565, 18.8045], [82.166, 18.8137], [82.1603, 18.8199], [82.169, 18.836], [82.1602, 18.8614], [82.1674, 18.8736], [82.1604, 18.8789], [82.1767, 18.8871], [82.1761, 18.9027], [82.2183, 18.9225], [82.237, 18.9142], [82.2461, 18.9191], [82.2328, 19.0179], [82.2023, 19.0666], [82.2191, 19.0954], [82.2049, 19.0971], [82.2058, 19.1169], [82.21219906816441, 19.11799882988682], [82.1825, 19.1317], [82.1769, 19.1186], [82.1703, 19.1204], [82.1662, 19.1351], [82.1757, 19.1387], [82.17, 19.1464], [82.1809, 19.1508], [82.1699, 19.1606], [82.1782, 19.1559], [82.1861, 19.1663], [82.176, 19.1721], [82.182, 19.1742], [82.1751, 19.1818], [82.1805, 19.1917], [82.1617, 19.2022], [82.1688, 19.2129], [82.1578, 19.2275], [82.1584, 19.2652], [82.1812, 19.3234], [82.1941, 19.3263], [82.1787, 19.3434], [82.1488, 19.353], [82.1472, 19.3655], [82.1533, 19.377], [82.1719, 19.3726], [82.1791, 19.3794], [82.1894, 19.4275], [82.1715, 19.4372], [82.1261, 19.4291], [82.1134, 19.4604], [82.1028, 19.4661], [82.108, 19.4943], [82.098, 19.4989], [82.1003, 19.5166], [82.076, 19.5236], [82.0661, 19.5108], [82.029, 19.508], [82.0506, 19.5487], [82.0399, 19.5979], [82.059, 19.629], [82.0447, 19.7082], [82.0504, 19.7458], [82.0636, 19.759], [82.0655, 19.7907], [82.0099, 19.8042], [81.9954, 19.7968], [81.9859, 19.8011], [81.9654, 19.8369], [81.9681, 19.8599], [81.8697, 19.9025], [81.8522, 19.9216], [81.8568, 19.9475], [81.845, 19.9519], [81.876, 20.052], [81.8819, 20.0443], [81.8953, 20.0482], [81.9373, 20.1025], [81.9528, 20.1018], [81.9953, 20.0536], [82.0177, 20.049], [82.0215, 20.0237], [82.0325, 20.0157], [82.038, 20.0301], [82.0705, 20.0569], [82.0854, 20.0507], [82.0889, 20.0394], [82.1023, 20.04], [82.1069, 20.0273], [82.1273, 20.0145], [82.1398, 20.0187], [82.1714, 20.0054], [82.1843, 19.9842], [82.2101, 19.9863], [82.2167, 19.9971], [82.2371, 20.0033], [82.2692, 19.9753], [82.3031, 19.8894], [82.3442, 19.835], [82.3645, 19.851], [82.3608, 19.8628], [82.3752, 19.8596], [82.3949, 19.888], [82.418, 19.9041], [82.446, 19.9102], [82.4642, 19.9008], [82.4732, 19.9071], [82.4973, 19.9041], [82.5055, 19.8899], [82.5191, 19.891], [82.5314, 19.8782], [82.5349, 19.8869], [82.5484, 19.8757], [82.556, 19.8807], [82.6034, 19.867], [82.5758, 19.8334], [82.576, 19.8082], [82.5847, 19.8024], [82.5818, 19.7832], [82.5949, 19.7753], [82.6022, 19.747], [82.5953, 19.7785], [82.6271, 19.7937], [82.6522, 19.8322], [82.6967, 19.8306], [82.7114, 19.84], [82.7241, 19.8751], [82.7141, 19.8778], [82.7074, 19.902], [82.7205, 19.9483], [82.7146, 19.9586], [82.7162351236749, 19.997679455830383], [82.6415, 20.0067], [82.605, 19.9901], [82.5501, 20.0178], [82.5091, 20.0182], [82.4786, 20.0382], [82.3983, 20.0582], [82.3977, 20.1238], [82.3859, 20.147], [82.4208, 20.2058], [82.4225, 20.2208], [82.4106, 20.2426], [82.4223, 20.248], [82.4119, 20.2659], [82.4378, 20.2936], [82.4308, 20.314], [82.4004, 20.3416], [82.4212, 20.3928], [82.4166, 20.4077], [82.432, 20.4166], [82.4297, 20.4279], [82.4379, 20.4344], [82.434, 20.4457], [82.4257, 20.4453], [82.4271, 20.4691], [82.4176, 20.4817], [82.4079, 20.4629], [82.396, 20.4597], [82.3897, 20.5176], [82.3576, 20.5293], [82.3322, 20.5619], [82.3504, 20.5807], [82.3471, 20.6025], [82.3623, 20.6099], [82.3765, 20.6324], [82.3685, 20.6496], [82.3738, 20.6674], [82.355, 20.6932], [82.354, 20.7197], [82.3456, 20.7316], [82.3536, 20.7359], [82.3417, 20.7678], [82.3461, 20.7979], [82.3395, 20.8468], [82.3512, 20.8897], [82.3638, 20.8885], [82.3632, 20.8713], [82.4053, 20.8702], [82.4196, 20.8318], [82.4393, 20.8356], [82.4645, 20.829], [82.4654, 20.843], [82.4867, 20.8616], [82.4877, 20.908], [82.5591, 20.9479], [82.5714, 20.9723], [82.6288, 21.038], [82.612, 21.0747], [82.6296, 21.0788], [82.6499, 21.1065], [82.6404, 21.1178], [82.6528, 21.1287], [82.6373, 21.1447], [82.6406, 21.1549], [82.6926, 21.1657], [82.6998, 21.1577], [82.7212, 21.1577], [82.7212, 21.1658], [82.7559, 21.1664], [82.7937, 21.1425], [82.8005, 21.156], [82.8511, 21.1686], [82.8525, 21.1595], [82.8718, 21.1575], [82.8764, 21.1635], [82.8822, 21.1484], [82.9016, 21.1669], [82.9317, 21.163], [82.9372, 21.1699], [82.94, 21.1609], [82.9477, 21.1618], [82.9438, 21.1779], [82.9649, 21.1933], [82.9656, 21.1753], [82.9881, 21.1828], [82.9806, 21.17], [83.0038, 21.1669], [82.9858, 21.151], [82.9904, 21.1398], [83.0046, 21.137], [83.016, 21.1463], [83.0453, 21.124], [83.078, 21.112], [83.1315, 21.1058], [83.1669, 21.1388], [83.192, 21.139], [83.2146, 21.1948], [83.2105, 21.205], [83.2221, 21.2287], [83.2176, 21.2548], [83.223, 21.2658], [83.2506, 21.2824], [83.2708, 21.2725], [83.2786, 21.2893], [83.2763, 21.3023], [83.2621, 21.3078], [83.2573, 21.3205], [83.2665, 21.3307], [83.2578, 21.3356], [83.2747, 21.3638], [83.2687, 21.3786], [83.2836, 21.3805], [83.379, 21.3445], [83.4069, 21.3516], [83.4084, 21.3608], [83.3969, 21.3672], [83.3989, 21.4053], [83.3759, 21.4281], [83.3736, 21.4424], [83.3544, 21.4481], [83.3471, 21.489], [83.3378, 21.5013], [83.3732, 21.5582], [83.365, 21.5758], [83.3695, 21.6002], [83.3827, 21.6201], [83.389, 21.6174], [83.3922, 21.6271], [83.4426, 21.6554], [83.4508, 21.6507], [83.444, 21.624], [83.466, 21.6092], [83.4736, 21.6325], [83.4888, 21.6303], [83.48842038366175, 21.64548465352995], [83.4481, 21.6575], [83.4187, 21.6807], [83.4316, 21.6999], [83.4593, 21.6985], [83.4893, 21.7454], [83.4762, 21.7521], [83.4823, 21.7651], [83.4694, 21.7876], [83.4837, 21.7942], [83.4924, 21.818], [83.5226, 21.7994], [83.541, 21.7993], [83.5401, 21.822], [83.5305, 21.8276], [83.5416, 21.8383], [83.5539, 21.8404], [83.58056026545835, 21.829617731975297], [83.5779, 21.8375], [83.5909, 21.8511], [83.5742, 21.8751], [83.5777, 21.889], [83.6059, 21.9143], [83.5909, 21.9295], [83.5567, 21.9353], [83.5617, 21.948], [83.539, 21.966], [83.5433, 21.9939], [83.5562, 22.0078], [83.5393, 22.0226], [83.5367, 22.0435], [83.5478, 22.0592], [83.5867, 22.0487], [83.6065, 22.0668], [83.5626, 22.0963], [83.5643, 22.106], [83.6077, 22.1537], [83.6276, 22.2043], [83.6495, 22.2233], [83.6553, 22.22], [83.6658, 22.2327], [83.7025, 22.2465], [83.7578, 22.2403], [83.7597, 22.2512], [83.7756, 22.2573], [83.7766, 22.2699], [83.7922, 22.2765], [83.7948, 22.2859], [83.8264, 22.2928], [83.8228, 22.3131], [83.8306, 22.3234], [83.8528, 22.327], [83.8643, 22.3433], [83.8903, 22.3365], [83.9232, 22.3584], [83.9433, 22.3547], [84.0103, 22.3716], [84.0064, 22.3822], [84.0134, 22.3974], [84.0303, 22.4266], [84.0472, 22.4382], [84.0472, 22.4692], [83.9802, 22.5022], [83.9748, 22.5122], [83.998, 22.531], [84.0255, 22.5258], [84.0366, 22.516], [84.0597, 22.5164], [84.0755, 22.5062], [84.0702, 22.5014], [84.1135, 22.4757], [84.1407, 22.4739], [84.1409, 22.4256], [84.1561, 22.4077], [84.199, 22.3758], [84.2515, 22.3781], [84.2688, 22.3546], [84.2953, 22.341], [84.3656, 22.3482], [84.3703, 22.3557], [84.4003, 22.3465], [84.4286, 22.3534], [84.435, 22.3742], [84.4846, 22.3888], [84.4767, 22.4053], [84.4824, 22.4133], [84.5362, 22.4274], [84.5493, 22.421], [84.5979, 22.4348], [84.6026, 22.4288], [84.6286, 22.4346], [84.6681, 22.4181], [84.7497, 22.419], [84.7593, 22.4475], [84.8125, 22.4529], [84.8176, 22.4376], [84.8386, 22.4309], [84.8824, 22.4485], [84.8856, 22.4211], [84.9102, 22.4233], [84.9262, 22.4349], [84.9239, 22.4436], [84.9402, 22.4452], [84.9567, 22.4582], [84.9594, 22.4431], [85.0372, 22.4728], [85.0359, 22.4824], [85.0597, 22.4864], [85.076, 22.4803], [85.0771, 22.4638], [85.0603, 22.4496], [85.0865, 22.3994], [85.0767, 22.3562], [85.0833, 22.3453], [85.0957, 22.3447], [85.0907, 22.3186], [85.1181, 22.3176], [85.116, 22.2941], [85.0996, 22.2936], [85.0706, 22.2737], [85.0782, 22.2574], [85.0492, 22.1954], [85.0527, 22.1825], [85.0291, 22.1635], [85.0317, 22.1331], [85.0236, 22.1186], [84.9834, 22.0955], [84.9846, 22.0866], [84.9937, 22.0814], [85.0117, 22.0913], [85.0239, 22.1102], [85.0553, 22.1157], [85.0954, 22.1081], [85.1211, 22.0698], [85.1559, 22.0783], [85.1706, 22.0514], [85.1676, 22.0695], [85.1806, 22.0732], [85.1857, 22.0592], [85.2136, 22.0496], [85.2214, 22.018], [85.23842292941656, 22.01054051407589], [85.2751, 22.0823], [85.3096, 22.1179], [85.3462, 22.1303], [85.3644, 22.1237], [85.3603, 22.1435], [85.3661, 22.1589], [85.4034, 22.1621], [85.515, 22.1156], [85.5398, 22.1018], [85.543, 22.0905], [85.5604, 22.0961], [85.5972, 22.0791], [85.6539, 22.0942], [85.6787, 22.0622], [85.67738770179982, 22.057003299127263], [85.7092, 22.0582], [85.7494, 22.0736], [85.8074, 22.1161], [85.821, 22.1065], [85.8133, 22.0943], [85.8321, 22.0934], [85.8359, 22.0802], [85.8161, 22.0736], [85.7934, 22.0818], [85.7749, 22.0563], [85.7838, 22.0402], [85.7603, 22.0135], [85.763, 21.9961], [85.7828, 21.9849], [85.817, 21.9858], [85.8244, 21.9754], [85.8958, 21.9844], [85.9059, 21.9704], [85.9111, 21.9731], [85.9065, 21.9768], [85.9162, 22.0088], [85.9309, 22.0233], [85.9436, 22.0204], [86.0074, 22.1171], [85.9968, 22.1324], [86.0314, 22.1909], [85.9739, 22.2471], [85.9897, 22.2544], [85.9883, 22.267], [86.0143, 22.2973], [86.0472, 22.309], [86.0137, 22.3131], [86.0119, 22.3223], [86.0267, 22.3349], [85.9981, 22.3418], [86.0218, 22.3648], [86.0272, 22.3862], [86.0151, 22.4286], [85.9846, 22.4354], [85.9656, 22.4512], [85.9679, 22.4612], [85.9571, 22.4648], [85.9734, 22.5059], [85.9851, 22.5155], [86.0265, 22.524], [86.0339, 22.5337], [86.024, 22.5446], [86.0454, 22.5675], [86.0755, 22.5441], [86.1166, 22.487], [86.2079, 22.4735], [86.2226, 22.4673], [86.2174, 22.4626], [86.2247, 22.4525], [86.2688, 22.4421], [86.2813, 22.4487], [86.3209, 22.3973], [86.3212, 22.3854], [86.3496, 22.3649], [86.3581, 22.3492], [86.4268, 22.3176], [86.4309, 22.3072], [86.4436, 22.3089], [86.4448, 22.3287], [86.4619, 22.3261], [86.4873, 22.3477], [86.4969, 22.3472], [86.5078, 22.3282], [86.5271, 22.3235], [86.5232, 22.3147], [86.5328, 22.301], [86.5402, 22.3082], [86.5538, 22.2985], [86.5769, 22.2956], [86.582, 22.3017], [86.5929, 22.2787], [86.6107, 22.2833], [86.6273, 22.2695], [86.6441, 22.2687], [86.6548, 22.2359], [86.6696, 22.2425], [86.6843, 22.2224], [86.725, 22.218], [86.7164, 22.1863], [86.7197, 22.1473], [86.7938, 22.1575], [86.802, 22.1507], [86.7994, 22.1304], [86.81, 22.1274], [86.8064, 22.1197], [86.8246, 22.1189], [86.8337, 22.0987], [86.8436, 22.0963], [86.8502, 22.1038], [86.9647, 22.0857], [86.9931, 22.0552], [87.0267, 22.0371], [87.0223, 22.0195], [87.0304, 21.9853], [86.9997, 21.9132], [87.0229, 21.8923], [87.0262, 21.8758], [87.0461, 21.8675], [87.10153338802297, 21.864732813781792], [87.0988, 21.8907], [87.0906, 21.9011], [87.1069, 21.9223], [87.1415, 21.924], [87.1614, 21.9349], [87.162, 21.9676], [87.1723, 21.9785], [87.1972, 21.9594], [87.2106, 21.9644], [87.2315, 21.9573], [87.2495, 21.936], [87.2492, 21.9151], [87.2344, 21.9006], [87.2521, 21.8777], [87.249, 21.8532], [87.2598, 21.8488], [87.2709, 21.8271], [87.2639, 21.8186], [87.2752, 21.817], [87.2774, 21.805], [87.297, 21.8116], [87.2984, 21.8012], [87.3109, 21.7938], [87.3216, 21.7977], [87.3195, 21.7907], [87.3358, 21.7936], [87.3386, 21.7848], [87.3555, 21.7922], [87.3718, 21.7788], [87.3697, 21.7654], [87.3851, 21.7768], [87.3976, 21.7666], [87.4456, 21.7682], [87.4454, 21.7438], [87.4543, 21.7391], [87.4448, 21.734], [87.4692, 21.7325], [87.4636, 21.7248], [87.4737, 21.7142], [87.4605, 21.6509], [87.4726, 21.6525], [87.486, 21.6323], [87.4848, 21.6125], [87.4076, 21.5887], [87.3619, 21.5578], [87.25, 21.5568], [87.1995, 21.5466], [87.1309, 21.5127], [87.1185, 21.5171], [87.0743, 21.4714], [87.0563, 21.469], [86.9793, 21.4098], [86.9099, 21.3283], [86.8925, 21.3184], [86.8324, 21.2081], [86.8167, 21.2169], [86.8323, 21.2062], [86.8548, 21.2105], [86.8415, 21.1751], [86.8479, 21.0955], [86.9393, 20.9208], [86.9809, 20.857], [86.9663, 20.7889], [86.942, 20.773], [86.9442, 20.7665], [86.9925, 20.7702], [87.0056, 20.7346], [86.9965, 20.7122], [87.0055, 20.7028], [87.0, 20.6978], [87.0582, 20.7168], [86.7753, 20.5208], [86.7456, 20.468], [86.7344, 20.4645], [86.7286, 20.4407], [86.7336, 20.4148], [86.7244, 20.3938], [86.7395, 20.4006], [86.7433, 20.3804], [86.7512, 20.3877], [86.7464, 20.3786], [86.7762, 20.4054], [86.7809, 20.3786], [86.7973, 20.3758], [86.7912, 20.3658], [86.7889, 20.3746], [86.7819, 20.3659], [86.7788, 20.3566], [86.7915, 20.3648], [86.7943, 20.3692], [86.798, 20.3634], [86.77367525380289, 20.332333563845644], [86.7797, 20.3364], [86.6798, 20.2642], [86.6693, 20.2757], [86.6721, 20.2625], [86.6802, 20.2599], [86.5956, 20.2245], [86.5238, 20.1734], [86.4769, 20.0973], [86.434, 20.0521], [86.4142, 19.9975], [86.37831942871438, 19.967070896727385], [86.3822, 19.9594], [86.4113, 19.9739], [86.3876, 19.9543], [86.3093, 19.9412], [86.1938, 19.8888], [85.8619, 19.8051], [85.678, 19.7439], [85.3467, 19.5846], [85.1731, 19.4668], [85.1056, 19.4138], [85.0799, 19.3748], [84.9836, 19.3178], [84.8632, 19.2155], [84.8113, 19.1575], [84.7663, 19.0781], [84.7028, 19.1179], [84.6978, 19.1264], [84.7061, 19.141], [84.7, 19.1444], [84.7106, 19.1466], [84.712, 19.1583], [84.6709, 19.166], [84.6673, 19.1299], [84.5955, 19.1324], [84.6095, 19.1008], [84.6255, 19.0991], [84.6255, 19.0849], [84.6312, 19.0821], [84.647, 19.0963], [84.6587, 19.0943], [84.6709, 19.0763], [84.6631, 19.0746], [84.6611, 19.063], [84.6184, 19.0659], [84.6207, 19.0561], [84.6134, 19.0566], [84.5941, 19.0223], [84.5817, 19.0301], [84.5833, 19.0425], [84.5773, 19.0405], [84.583, 19.0732], [84.5747, 19.0676], [84.5729, 19.0737], [84.5566, 19.0566], [84.5164, 19.0484], [84.4965, 19.0309], [84.4826, 19.0166], [84.476, 18.988], [84.4211, 19.022], [84.4322, 18.9951], [84.4524, 18.976], [84.4311, 18.9692], [84.4299, 18.9553], [84.41143496157282, 18.939599780160858], [84.4256, 18.9509], [84.4277, 18.9321], [84.4395, 18.9271], [84.429, 18.9093], [84.4177, 18.9161], [84.418, 18.8972], [84.3784, 18.9037], [84.3977, 18.89], [84.3921, 18.8763], [84.3603, 18.8946], [84.3842, 18.8741], [84.3742, 18.8614], [84.3621, 18.8609], [84.337, 18.89], [84.3305, 18.8832], [84.3256, 18.8761], [84.3331, 18.8605], [84.3638, 18.8369], [84.3521, 18.8315], [84.3494, 18.8201], [84.3311, 18.8178], [84.3445, 18.8018], [84.3266, 18.7988], [84.3213, 18.7865], [84.2887, 18.8047], [84.2865, 18.7923], [84.261, 18.7832], [84.2263, 18.7988], [84.2144, 18.7954], [84.2181, 18.7901], [84.1953, 18.7917], [84.1901, 18.7777], [84.1593, 18.7879], [84.1404, 18.7773], [84.1374, 18.7612], [84.1224, 18.7679], [84.0895, 18.7568], [84.0896, 18.764], [84.0764, 18.7644], [84.068, 18.7823], [84.0599, 18.7824], [84.0599, 18.7992], [84.0467, 18.8016], [84.0385, 18.8164], [84.0155, 18.8171], [84.0157, 18.8088], [83.9656, 18.8147], [83.95, 18.8052], [83.9158, 18.828], [83.8996, 18.8244], [83.8932, 18.8145], [83.8877, 18.831], [83.8477, 18.8657], [83.8458, 18.9136], [83.8267, 18.9161], [83.8177, 18.9715], [83.7936, 19.0069], [83.80527863904868, 19.029995816029096], [83.7995, 19.0287], [83.7947, 19.018], [83.7777, 19.0174], [83.782, 19.0084], [83.7516, 18.9987], [83.7449, 18.9865], [83.759, 18.9506], [83.7696, 18.9548], [83.7845, 18.9336], [83.7879, 18.9159], [83.7802, 18.9118], [83.7694, 18.9143], [83.7632, 18.9273], [83.7539, 18.9251], [83.733, 18.9877], [83.7142, 18.993], [83.7095, 19.0026], [83.73, 19.022], [83.7001, 19.0255], [83.6853, 19.0585], [83.661, 19.0811], [83.6628, 19.099], [83.647, 19.1184], [83.655, 19.1296], [83.6369, 19.1316], [83.6317, 19.1408], [83.6373, 19.1535], [83.626, 19.1627], [83.621, 19.1419], [83.5991, 19.1302], [83.6106, 19.0961], [83.5856, 19.0866], [83.5845, 19.0576], [83.5633, 19.058], [83.567, 19.0719], [83.5602, 19.0871], [83.549, 19.0805], [83.5576, 19.0562], [83.5417, 19.0415], [83.5367, 19.0095], [83.5009, 19.0207], [83.4965, 19.0355], [83.5148, 19.0285], [83.5193, 19.0391], [83.5117, 19.0703], [83.5006, 19.0606], [83.4808, 19.0785], [83.4834, 19.0923], [83.468, 19.0931], [83.4784, 19.0793], [83.4663, 19.0799], [83.4623, 19.0638], [83.4692, 19.0611], [83.4707, 19.0429], [83.4833, 19.0339], [83.4825, 19.015], [83.4777, 19.0074], [83.45, 19.0095], [83.4553, 18.9913], [83.4678, 18.9911], [83.4698, 18.9693], [83.4618, 18.9548], [83.4459, 18.9578], [83.4389, 18.9764], [83.4153, 18.9892], [83.4199, 18.9998], [83.4144, 19.0036], [83.3963, 19.0097], [83.372, 19.0024], [83.3675, 19.0165], [83.348, 19.0169], [83.3625, 19.0477], [83.3369, 19.006], [83.3388, 18.997], [83.3106, 18.9987], [83.3187, 18.9734], [83.3348, 18.9685], [83.3325, 18.9577], [83.3389, 18.9533], [83.3254, 18.9331], [83.3352, 18.9249], [83.3484, 18.9263], [83.3438, 18.9411], [83.3502, 18.9433], [83.3503, 18.9657], [83.3666, 18.9634], [83.3713, 18.9427], [83.3874, 18.9326], [83.3706, 18.926], [83.3701, 18.9417], [83.3525, 18.9435], [83.3598, 18.9147], [83.3697, 18.9079], [83.3906, 18.9096], [83.3783, 18.897], [83.3819, 18.8918], [83.4148, 18.875], [83.4049, 18.8619], [83.4059, 18.8425], [83.3783, 18.8307], [83.3682, 18.8441], [83.3282, 18.8181], [83.3306, 18.8063], [83.3093, 18.8095], [83.2843, 18.7979], [83.2753, 18.7829], [83.2814, 18.7746], [83.2714, 18.7646], [83.2246, 18.7751], [83.2282, 18.7569], [83.2126, 18.7305], [83.2065, 18.7514], [83.1932, 18.7531], [83.1779, 18.7709], [83.1565, 18.7682], [83.139, 18.7854], [83.1151, 18.7681], [83.1222, 18.7575], [83.0728, 18.7056], [83.0581, 18.6654], [83.0131, 18.6461], [83.0196, 18.6351], [83.0001, 18.6203], [83.0004, 18.6081], [83.015, 18.6056], [83.0134, 18.5947], [83.0238, 18.5896], [83.0528, 18.6007], [83.0531, 18.5881], [83.0404, 18.5867], [83.03, 18.5733], [83.0454, 18.5442], [83.0622, 18.5422], [83.0809, 18.554], [83.0951, 18.5462], [83.0552, 18.4957], [83.0551, 18.4856], [83.0209, 18.4562], [83.0409, 18.4408], [83.0425, 18.4242], [83.0586, 18.4367], [83.0673, 18.4301], [83.0574, 18.4194], [83.0771, 18.4034], [83.0555, 18.3807], [83.0431, 18.3794], [83.0219, 18.3917], [82.9968, 18.3855], [82.9705, 18.36], [82.9601, 18.3664], [82.9397, 18.3608], [82.9222, 18.3754], [82.9131, 18.3685], [82.8942, 18.3816], [82.895, 18.4241], [82.8705, 18.4185], [82.8564, 18.4254], [82.8524, 18.4192], [82.8456, 18.4338], [82.8156, 18.4509], [82.8031, 18.4492], [82.7822, 18.4308], [82.7869, 18.4107], [82.7995, 18.4067], [82.7939, 18.386], [82.7826, 18.3819], [82.7906, 18.3632], [82.7741, 18.3403], [82.7597, 18.3396], [82.7343, 18.3202], [82.7147, 18.3224], [82.7094, 18.3132], [82.6668, 18.298], [82.6426, 18.302], [82.6522, 18.2804], [82.6422, 18.2642], [82.6525, 18.25], [82.638, 18.2367], [82.5878, 18.2761], [82.5987, 18.3042], [82.5813, 18.3152], [82.5949, 18.3289], [82.6089, 18.3271], [82.602, 18.3523], [82.6145, 18.3509], [82.6208, 18.3604], [82.6065, 18.3655], [82.6053, 18.382], [82.5995, 18.3798], [82.5951, 18.3891], [82.5839, 18.3867], [82.5624, 18.4], [82.5553, 18.3936], [82.5353, 18.4066], [82.5471, 18.4126], [82.5414, 18.422], [82.5616, 18.4479], [82.5424, 18.4576], [82.5396, 18.4436], [82.5283, 18.4642], [82.5194, 18.4656], [82.5342, 18.4777], [82.5265, 18.4963], [82.532, 18.5112], [82.5152, 18.5181], [82.5051, 18.5135], [82.4868, 18.5275], [82.4813, 18.5406], [82.4935, 18.5428], [82.4873, 18.5498], [82.4447, 18.5141], [82.4304, 18.4855], [82.3642, 18.4215], [82.3796, 18.4038], [82.3855, 18.3675], [82.349, 18.3304], [82.3381, 18.328]], [[82.5675, 19.7352], [82.56324039047182, 19.72801712903091], [82.6022, 19.747], [82.5675, 19.7352]], [[85.2719, 21.9606], [85.27832540604224, 21.958650719515273], [85.26923760418514, 21.9660388943075], [85.2719, 21.9606]], [[85.2986, 21.9525], [85.3139, 21.9586], [85.29000595366603, 21.9551071825957], [85.2986, 21.9525]], [[85.1914771736831, 21.69305713983498], [85.1928, 21.6967], [85.1842, 21.7091], [85.1914771736831, 21.69305713983498]], [[85.18135680289707, 21.655102431453706], [85.2019, 21.661], [85.1912, 21.6613], [85.18135680289707, 21.655102431453706]], [[85.18099644396551, 21.654875538793096], [85.1803, 21.6451], [85.18071242937853, 21.644935028248586], [85.18099644396551, 21.654875538793096]], [[85.19371244573082, 21.639735021707672], [85.1943, 21.6409], [85.18395217391304, 21.64363913043478], [85.19371244573082, 21.639735021707672]], [[85.1769, 21.6201], [85.1885, 21.6294], [85.19268675496689, 21.63770132450332], [85.1769, 21.6201]], [[84.6637, 21.7633], [84.65634519242745, 21.763307121061153], [84.6785, 21.7492], [84.6637, 21.7633]], [[84.3939, 21.3941], [84.39468255802598, 21.392697493407994], [84.3928, 21.4356], [84.3939, 21.3941]], [[84.5641, 21.2501], [84.56450369259369, 21.250225248214964], [84.5657, 21.3232], [84.5641, 21.2501]], [[84.68953758247079, 21.321743871436354], [84.6855, 21.3222], [84.6582, 21.3137], [84.68953758247079, 21.321743871436354]], [[84.7591, 21.2783], [84.7094, 21.3195], [84.69936202643659, 21.32063399701344], [84.7591, 21.2783]], [[84.7427, 21.2342], [84.7215, 21.2282], [84.74297070707071, 21.234038525606948], [84.7427, 21.2342]], [[84.7176, 21.2198], [84.71813143931482, 21.217089659494462], [84.7215, 21.2282], [84.7176, 21.2198]], [[84.74218125227522, 21.177226028394614], [84.746, 21.1789], [84.7391, 21.1952], [84.74218125227522, 21.177226028394614]], [[84.58326032934131, 21.061110583832335], [84.5837, 21.061], [84.6119, 21.0699], [84.58326032934131, 21.061110583832335]], [[84.5034, 21.0883], [84.4988839404498, 21.083031263858093], [84.5323, 21.0872], [84.5034, 21.0883]], [[84.4732, 21.0774], [84.46487832322762, 21.066666243003738], [84.47829780349299, 21.077954109075325], [84.4732, 21.0774]], [[84.4327219597132, 21.015470017070676], [84.4339, 21.0163], [84.4087, 21.0304], [84.4327219597132, 21.015470017070676]], [[84.3795, 20.9656], [84.4055, 20.9766], [84.40557184452396, 20.976871662106227], [84.3795, 20.9656]], [[84.36236359081907, 20.956676162181054], [84.3681, 20.9517], [84.37031314308156, 20.954398481476634], [84.36236359081907, 20.956676162181054]], [[84.3553, 20.9587], [84.352, 20.9518], [84.35855554886857, 20.957767230380355], [84.3553, 20.9587]], [[84.3021, 20.9362], [84.29864464083022, 20.934144657045564], [84.3105, 20.9315], [84.3021, 20.9362]], [[84.2789, 20.9224], [84.27674918625677, 20.91955740405866], [84.28972743538769, 20.928840457256474], [84.2789, 20.9224]], [[84.2618, 20.8998], [84.26186431924883, 20.89954272300468], [84.2623122895255, 20.90047706101031], [84.2618, 20.8998]], [[84.26622966818478, 20.88147521145088], [84.23523247614978, 20.894980252449837], [84.29047831948034, 20.866523335894385], [84.26622966818478, 20.88147521145088]], [[84.35237547630679, 20.82380268685884], [84.3518, 20.8293], [84.34825749799519, 20.83145036086607], [84.35237547630679, 20.82380268685884]], [[84.3497128440367, 20.784723853211034], [84.3556, 20.793], [84.35392871883062, 20.808965133275972], [84.3497128440367, 20.784723853211034]], [[84.3491, 20.7812], [84.35179200847078, 20.778620942933596], [84.34930578738958, 20.782383277490084], [84.3491, 20.7812]], [[84.3777, 20.7538], [84.41329971164713, 20.740250227954643], [84.36967225586775, 20.761490915707117], [84.3777, 20.7538]], [[84.42, 20.7377], [84.4628, 20.7352], [84.41840003830717, 20.73830896887127], [84.42, 20.7377]], [[84.6123, 20.6392], [84.63520398084408, 20.625989464232248], [84.5607184685335, 20.689398118745185], [84.6123, 20.6392]], [[84.639, 20.6238], [84.7618, 20.6081], [84.63766060796051, 20.624572533236257], [84.639, 20.6238]], [[84.7618, 20.6081], [84.8457369262115, 20.531305641005144], [84.821, 20.5609], [84.7618, 20.6081]], [[84.9437, 20.5818], [84.8984, 20.5823], [84.89801958997722, 20.5818], [84.9437, 20.5818]], [[85.0652, 20.5783], [85.0671349328215, 20.579921928982728], [85.06263567567568, 20.5790843013226], [85.0652, 20.5783]], [[85.0856, 20.5954], [85.09174160669282, 20.618678670529242], [85.07729008280134, 20.588434334112883], [85.0856, 20.5954]], [[85.1171, 20.6103], [85.12135940036441, 20.613077869802883], [85.09334073918524, 20.618376270474588], [85.1171, 20.6103]], [[85.12274284866469, 20.613980118694357], [85.12711071792779, 20.61616723434632], [85.1346, 20.6429], [85.12274284866469, 20.613980118694357]], [[85.70731841746249, 20.62350736698499], [85.7043, 20.6223], [85.7133, 20.6148], [85.70731841746249, 20.62350736698499]], [[85.7122, 20.6242], [85.71339691912708, 20.62593876765083], [85.710422406639, 20.624748962655598], [85.7122, 20.6242]], [[85.72570206497105, 20.643814486275506], [85.7169, 20.6389], [85.71395854711297, 20.62675464614384], [85.72570206497105, 20.643814486275506]], [[85.7544, 20.6361], [85.7289, 20.6456], [85.72827746837137, 20.645252419840688], [85.7544, 20.6361]], [[85.78707620800736, 20.67234364166283], [85.7862, 20.6728], [85.7813, 20.6629], [85.78707620800736, 20.67234364166283]], [[85.9099, 20.6894], [85.90989641892412, 20.689607702400238], [85.8883, 20.6586], [85.9099, 20.6894]], [[85.9097, 20.701], [85.9579, 20.6849], [85.90751859543781, 20.704378312544492], [85.90986904564315, 20.691195352697132], [85.9097, 20.701]], [[85.97877344228804, 20.662534525025535], [85.9738, 20.669], [85.9656, 20.6665], [85.97877344228804, 20.662534525025535]], [[85.9897, 20.6477], [85.99042295081968, 20.64739016393443], [85.98929787234043, 20.648852765957443], [85.9897, 20.6477]], [[86.0053, 20.6261], [86.00613525524886, 20.62552990514761], [86.0037, 20.6417], [86.0053, 20.6261]], [[86.042, 20.5918], [86.0719, 20.6], [86.04211937185046, 20.592722418844488], [86.042, 20.5918]], [[86.18730667730452, 20.658021124340248], [86.1873, 20.6581], [86.175, 20.653], [86.18730667730452, 20.658021124340248]], [[86.2665, 20.5842], [86.2509, 20.6053], [86.25074571358051, 20.6053386627907], [86.2665, 20.5842]], [[86.28, 20.5813], [86.2726, 20.5643], [86.28554441668, 20.582925059971213], [86.2665, 20.5842], [86.28, 20.5813]], [[86.2479, 20.5373], [86.2485, 20.535458620689635], [86.2485, 20.537876106194695], [86.2479, 20.5373]], [[86.2508, 20.5284], [86.2561, 20.5328], [86.24994669008376, 20.531018778708454], [86.2508, 20.5284]], [[86.2682, 20.5074], [86.2764, 20.5186], [86.27474699066623, 20.51975629224332], [86.2682, 20.5074]], [[86.27009638640429, 20.405678568872986], [86.2721, 20.4058], [86.2774, 20.4224], [86.27009638640429, 20.405678568872986]], [[86.266, 20.3963], [86.26619953753112, 20.39639345428673], [86.2661755748373, 20.396701973969623], [86.266, 20.3963]], [[86.2752187294633, 20.395252573932098], [86.2757, 20.3969], [86.27480852974186, 20.39672929292929], [86.2752187294633, 20.395252573932098]], [[86.26879779795249, 20.387562487927372], [86.2731, 20.388], [86.2748599067599, 20.3940242962166], [86.26879779795249, 20.387562487927372]], [[86.24828318737396, 20.367284932118736], [86.24840108061956, 20.36731446696106], [86.2506, 20.3811], [86.24828318737396, 20.367284932118736]], [[86.3146, 20.3542], [86.31673735076748, 20.35489874928937], [86.3095, 20.3616], [86.3146, 20.3542]], [[86.36567342505431, 20.357612744388124], [86.3606, 20.3584], [86.36005874671959, 20.355345785060493], [86.36567342505431, 20.357612744388124]], [[86.60409585776432, 20.340916323056554], [86.5992, 20.3419], [86.5501, 20.3245], [86.60409585776432, 20.340916323056554]], [[86.68993581507435, 20.304189954656444], [86.6818, 20.3186], [86.6644, 20.3288], [86.68993581507435, 20.304189954656444]], [[86.6975, 20.2969], [86.7234, 20.2984], [86.69659686174639, 20.29777039608129], [86.6975, 20.2969]], [[82.70449139031926, 20.728832440782696], [82.6854, 20.733], [82.6999, 20.7297], [82.70449139031926, 20.728832440782696]], [[82.7454, 20.7704], [82.73370197668555, 20.723312998591393], [82.7343, 20.7232], [82.7454, 20.7704]], [[83.37115384615393, 21.063815384615353], [83.352, 21.0712], [83.341, 21.0575], [83.3553, 21.0691], [83.37115384615393, 21.063815384615353]], [[83.3912, 21.0711], [83.37720070093458, 21.061799766355136], [83.3778, 21.0616], [83.3912, 21.0711]], [[83.4463, 21.0162], [83.45716419182435, 21.058310761230683], [83.4236, 21.0313], [83.4555, 21.0531], [83.4463, 21.0162]], [[83.4667, 20.9963], [83.46814433266263, 20.99623879946345], [83.4463, 21.0162], [83.4667, 20.9963]], [[83.50581223915204, 20.98113665120901], [83.4903, 20.9953], [83.5049, 20.981], [83.50581223915204, 20.98113665120901]], [[83.5779028176088, 20.97535266819015], [83.57093790590557, 20.974675796489414], [83.5729, 20.9742], [83.5779028176088, 20.97535266819015]], [[83.6772, 20.7446], [83.6534, 20.7458], [83.67624250731883, 20.741444437163782], [83.6772, 20.7446]], [[83.6657, 20.7067], [83.66982826128357, 20.720305313273688], [83.66494116438545, 20.70599873122518], [83.6657, 20.7067]], [[83.5960825664567, 20.554330041635527], [83.605, 20.5704], [83.5971, 20.5638], [83.5960825664567, 20.554330041635527]], [[83.59998218011356, 20.53337332629077], [83.59577634326213, 20.551479810362995], [83.5945, 20.5396], [83.59998218011356, 20.53337332629077]], [[83.60123877115733, 20.52796359535659], [83.60083340655892, 20.529708724305664], [83.59101547884185, 20.525866926503337], [83.60123877115733, 20.52796359535659]], [[84.0127, 20.8405], [84.01075285436526, 20.840546056007128], [84.02129287690794, 20.83370012496655], [84.0127, 20.8405]], [[84.1074, 20.8382], [84.04072982686952, 20.821075482226227], [84.041, 20.8209], [84.1074, 20.8382]], [[84.2021, 20.8932], [84.19806304387583, 20.890855410909936], [84.2328386377192, 20.89485162829536], [84.2021, 20.8932]], [[84.51591425891182, 20.403332645403378], [84.5396, 20.4101], [84.5171, 20.4048], [84.51591425891182, 20.403332645403378]], [[84.5097, 20.3952], [84.5132, 20.3824], [84.51657585863613, 20.381943802887008], [84.51394926399692, 20.400900964196182], [84.5097, 20.3952]], [[84.5183, 20.3695], [84.51824412018401, 20.369903306497964], [84.51814138032464, 20.369401935984175], [84.5183, 20.3695]], [[84.5674458828964, 20.212919447973228], [84.5422, 20.2507], [84.5489, 20.2319], [84.5674458828964, 20.212919447973228]], [[84.5851, 20.1865], [84.57751573640793, 20.197849876983923], [84.58754180881307, 20.171751474769017], [84.5851, 20.1865]], [[84.5876, 20.1714], [84.58756936300138, 20.171585047471666], [84.5583, 20.1573], [84.5876, 20.1714]], [[84.4524, 20.1679], [84.4540254337312, 20.16661102631228], [84.4593, 20.1881], [84.4524, 20.1679]], [[84.4346, 20.2003], [84.44636360216671, 20.20508519410172], [84.4462, 20.2053], [84.4346, 20.2003]], [[84.3226, 19.9898], [84.32862966310599, 20.00373870172553], [84.3281, 20.0032], [84.3226, 19.9898]], [[84.3282, 19.9807], [84.33574948240167, 19.978680952380948], [84.3226, 19.9898], [84.3282, 19.9807]], [[84.3559, 19.9906], [84.33649206433252, 19.978482354887813], [84.3368, 19.9784], [84.3559, 19.9906]], [[84.30623246753247, 19.90853434343435], [84.3242, 19.8722], [84.3063, 19.9086], [84.30623246753247, 19.90853434343435]], [[84.2272, 19.6122], [84.22490210515505, 19.627578219346887], [84.224, 19.6273], [84.2272, 19.6122]], [[84.23064968932913, 19.57495086897794], [84.231158126052, 19.575030166448478], [84.2152, 19.5851], [84.23064968932913, 19.57495086897794]], [[84.2635, 19.5877], [84.26068242109547, 19.580511223916478], [84.26286027300542, 19.563230442457105], [84.2635, 19.5877]], [[84.26969171554252, 19.553225073313783], [84.26370292771213, 19.55654416054508], [84.2642, 19.5526], [84.26969171554252, 19.553225073313783]], [[84.27761564121572, 19.55894600938967], [84.27201562500001, 19.553489583333334], [84.2765, 19.554], [84.27761564121572, 19.55894600938967]], [[84.38464233776995, 18.97318789165674], [84.3988, 18.9844], [84.39771394877084, 18.985978562833072], [84.3839, 18.9763], [84.38464233776995, 18.97318789165674]], [[84.3868062702004, 18.965515966386555], [84.38600849315068, 18.96746054794523], [84.3865, 18.9654], [84.3868062702004, 18.965515966386555]], [[84.4073, 18.973], [84.40720617423813, 18.972961912314485], [84.4104, 18.9658], [84.4073, 18.973]], [[82.35326701063035, 19.183882821194253], [82.372, 19.1701], [82.3535, 19.1842], [82.35326701063035, 19.183882821194253]], [[82.3832, 19.1778], [82.4009, 19.1651], [82.40169007714255, 19.165407714255522], [82.3832, 19.1778]], [[82.54887832813137, 19.205107843669428], [82.5676, 19.1979], [82.5488, 19.2061], [82.54887832813137, 19.205107843669428]], [[82.57347664134035, 19.20948044028833], [82.5727, 19.2113], [82.5676, 19.1979], [82.57347664134035, 19.20948044028833]], [[82.57641182495344, 19.20260372439479], [82.5775, 19.1979], [82.57827581052223, 19.19823667249078], [82.57641182495344, 19.20260372439479]], [[82.61510354543606, 19.181677458833096], [82.6152, 19.1593], [82.6159, 19.1817], [82.61510354543606, 19.181677458833096]], [[82.62537295480014, 19.152007881957413], [82.6265, 19.1512], [82.62556860465116, 19.154442635658913], [82.62537295480014, 19.152007881957413]], [[82.62609444550304, 19.160986432926826], [82.6312414204251, 19.161853291861068], [82.6262, 19.1623], [82.62609444550304, 19.160986432926826]], [[82.63356792145692, 19.16164714620002], [82.63474328621908, 19.159221790341583], [82.6341, 19.1616], [82.63356792145692, 19.16164714620002]], [[82.63890183902555, 19.150640649629807], [82.6396, 19.1492], [82.63940908259677, 19.15105967692777], [82.63890183902555, 19.150640649629807]], [[82.63731560796104, 19.175824616868983], [82.6538, 19.1887], [82.6373, 19.1759], [82.63731560796104, 19.175824616868983]], [[82.8648935341522, 19.204374371707676], [82.8706977405132, 19.194793455728227], [82.88376394435718, 19.20123787300875], [82.8648935341522, 19.204374371707676]], [[82.88933934843813, 19.203987732940078], [82.892, 19.2053], [82.8935220338983, 19.20986610169489], [82.88933934843813, 19.203987732940078]], [[82.89402021276595, 19.211360638297876], [82.8941, 19.2116], [82.8842, 19.2181], [82.89402021276595, 19.211360638297876]], [[82.92279923017502, 19.440585218827415], [82.9349, 19.4517], [82.9227, 19.4407], [82.92279923017502, 19.440585218827415]], [[82.9783, 19.4494], [82.9938, 19.4638], [82.99392879148682, 19.464610909361504], [82.9783, 19.4494]], [[83.0254, 19.5082], [83.03642384277356, 19.550110465319257], [83.0361, 19.55], [83.0254, 19.5082]], [[83.15646438043633, 19.485923741622695], [83.15818480533252, 19.483272595061354], [83.1585, 19.4838], [83.15646438043633, 19.485923741622695]], [[83.1693, 19.4271], [83.1824, 19.4218], [83.18263727695154, 19.42424800367074], [83.1693, 19.4271]], [[83.18388324195674, 19.437102715797522], [83.18583899165986, 19.457280328588446], [83.1824, 19.4522], [83.18388324195674, 19.437102715797522]], [[83.18923129899626, 19.462291691699026], [83.19873209997817, 19.45600150622134], [83.1912, 19.4652], [83.18923129899626, 19.462291691699026]], [[83.20107083101637, 19.45314535681187], [83.2018, 19.4392], [83.2025, 19.4514], [83.20107083101637, 19.45314535681187]], [[83.21597111264686, 19.43083510711818], [83.2131, 19.4383], [83.2018, 19.4392], [83.21597111264686, 19.43083510711818]], [[83.21615564752875, 19.430726180278167], [83.2162, 19.4307], [83.2192, 19.4431], [83.21615564752875, 19.430726180278167]], [[83.40413721975986, 19.920829649014497], [83.4185, 19.9344], [83.4041, 19.9209], [83.40413721975986, 19.920829649014497]], [[83.4462, 19.9733], [83.50408205497136, 19.95629921356841], [83.4952, 19.9605], [83.4462, 19.9733]], [[83.5267, 19.8777], [83.5276, 19.8556], [83.52837972544879, 19.85586356916578], [83.5267, 19.8777]], [[83.64617844750889, 19.65954460631673], [83.6477, 19.658], [83.695, 19.6911], [83.64617844750889, 19.65954460631673]], [[83.81432133501504, 19.720753759580866], [83.8324, 19.7069], [83.8149, 19.721], [83.81432133501504, 19.720753759580866]], [[83.8729, 19.6717], [83.9055, 19.6717], [83.91105340699816, 19.676352854511972], [83.8729, 19.6717]], [[83.9229843137255, 19.677807843137256], [83.9358, 19.6714], [83.9303, 19.6787], [83.9229843137255, 19.677807843137256]], [[83.955, 19.6362], [83.9401, 19.6353], [83.92520312297525, 19.626498691201245], [83.955, 19.6362]], [[84.1058, 19.6233], [84.13218538744466, 19.630744448600463], [84.1289, 19.6322], [84.1058, 19.6233]], [[84.13436995612619, 19.62977660171624], [84.1529, 19.5835], [84.1368, 19.6287], [84.13436995612619, 19.62977660171624]], [[84.20343056994818, 19.593325388601038], [84.1974, 19.5953], [84.1529, 19.5835], [84.20343056994818, 19.593325388601038]], [[84.20664287253142, 19.592273572710948], [84.2048, 19.5799], [84.2087, 19.5916], [84.20664287253142, 19.592273572710948]], [[82.8776, 19.1834], [82.898, 19.1744], [82.8717214921731, 19.19310356428961], [82.8776, 19.1834]], [[82.9805, 19.1384], [82.9807, 19.1718], [82.9790868492366, 19.17080825750733], [82.9805, 19.1384]], [[83.2604, 19.0386], [83.26049955618133, 19.038805494169146], [83.2344, 19.0265], [83.2604, 19.0386]], [[83.2682, 19.0547], [83.2681285564262, 19.054804729784305], [83.2648500000001, 19.047785256410467], [83.2682, 19.0547]], [[83.28453509933775, 19.119624503311258], [83.2832, 19.1263], [83.28148847827637, 19.12207872583292], [83.28453509933775, 19.119624503311258]], [[83.2904, 19.1149], [83.2984, 19.123], [83.28766746987952, 19.117101204819278], [83.2904, 19.1149]], [[82.17353343195266, 18.6386], [82.17223111111112, 18.6386], [82.1725, 18.6379], [82.17353343195266, 18.6386]], [[82.1878, 18.6506], [82.18612102989373, 18.64712626874565], [82.2224, 18.6717], [82.1878, 18.6506]], [[82.22940609022557, 18.6316277443609], [82.235, 18.6431], [82.2291, 18.6322], [82.22940609022557, 18.6316277443609]], [[82.24048972211652, 18.61586912828316], [82.23131771260996, 18.628053841642238], [82.2337, 18.6236], [82.24048972211652, 18.61586912828316]], [[82.2523, 18.6137], [82.24315562785195, 18.61283369105966], [82.2438, 18.6121], [82.2523, 18.6137]], [[82.2656, 18.5904], [82.26623781412047, 18.590438268847226], [82.2523, 18.6137], [82.2656, 18.5904]], [[82.3127, 18.5756], [82.29043018774138, 18.579632393989215], [82.2913, 18.5786], [82.3127, 18.5756]], [[82.3632, 18.6233], [82.3293, 18.5985], [82.36330431597479, 18.623239371912092], [82.3632, 18.6233]], [[82.3902, 18.6257], [82.3749, 18.6165], [82.39082981801212, 18.625318292113857], [82.3902, 18.6257]], [[82.3968, 18.6217], [82.39297670145191, 18.6240171506352], [82.4086, 18.6022], [82.3968, 18.6217]], [[82.38729471174504, 18.50170000943209], [82.38652641237854, 18.50549139978409], [82.3849, 18.5026], [82.38729471174504, 18.50170000943209]], [[83.81515557830092, 19.032210644831114], [83.81619980266404, 19.032058362111492], [83.816, 19.0324], [83.81515557830092, 19.032210644831114]], [[83.8327134070677, 19.0049524952792], [83.8334, 19.0038], [83.8444, 19.0107], [83.8327134070677, 19.0049524952792]], [[83.85131019061583, 19.003691092375362], [83.8574, 18.9911], [83.86313496540713, 18.99169739222991], [83.85131019061583, 19.003691092375362]], [[83.88401157382366, 18.993872038939962], [83.891, 18.9946], [83.89175689686726, 18.99573310596104], [83.88401157382366, 18.993872038939962]], [[83.94424419861076, 19.548856135837404], [83.9408708977142, 19.552806448729424], [83.9425, 19.5493], [83.94424419861076, 19.548856135837404]], [[83.93761392795884, 19.559816688393354], [83.9332163371488, 19.582847034339224], [83.932, 19.5719], [83.93761392795884, 19.559816688393354]], [[82.8132, 20.101], [82.81357240118069, 20.101601963552362], [82.7883, 20.1034], [82.8132, 20.101]], [[82.8839, 20.1582], [82.81794509114168, 20.167758682443232], [82.8229, 20.1652], [82.8839, 20.1582]], [[83.4869607629298, 20.452235631964946], [83.4858, 20.4542], [83.4222, 20.4031], [83.4869607629298, 20.452235631964946]], [[83.6217, 20.3506], [83.62529387234042, 20.363491063829773], [83.61931892301335, 20.351253215810495], [83.6217, 20.3506]], [[83.6525, 20.3669], [83.6273, 20.3676], [83.62705307564981, 20.36709425133092], [83.6525, 20.3669]], [[83.6509250343879, 20.388162035763404], [83.6476, 20.3805], [83.6525, 20.3669], [83.6509250343879, 20.388162035763404]], [[83.65104799373132, 20.38844537685916], [83.65445081342588, 20.38718942704463], [83.66006559766764, 20.409225072886297], [83.65104799373132, 20.38844537685916]], [[83.66511940559441, 20.42087080419581], [83.67201467856884, 20.427518342811883], [83.66399950267737, 20.42390656602128], [83.66511940559441, 20.42087080419581]], [[83.692, 20.4142], [83.6773, 20.4299], [83.67596417736289, 20.429298055231424], [83.692, 20.4142]], [[84.27938122712219, 20.673762192783684], [84.2766, 20.6725], [84.27672067131812, 20.671325042428812], [84.27938122712219, 20.673762192783684]], [[84.32144482289985, 20.68686537840822], [84.3145, 20.6897], [84.29853717091147, 20.68245565540046], [84.32144482289985, 20.68686537840822]], [[84.33797943380516, 20.67555770191507], [84.339, 20.6797], [84.33085655013447, 20.68302385708797], [84.33797943380516, 20.67555770191507]], [[84.3429, 20.6704], [84.3567, 20.6712], [84.34089305466239, 20.672503665594853], [84.3429, 20.6704]], [[84.4253, 20.4848], [84.4551, 20.4663], [84.42569352276199, 20.485287626031166], [84.4253, 20.4848]], [[84.4609, 20.4], [84.4649, 20.4453], [84.46468794607453, 20.445754401268847], [84.4609, 20.4]], [[82.5731, 19.7139], [82.563093813977, 19.727769960823966], [82.5624, 19.7266], [82.5731, 19.7139]], [[82.84878382436884, 19.209982893523595], [82.84605652978543, 19.21570827789728], [82.8458, 19.2117], [82.84878382436884, 19.209982893523595]], [[83.70585881006865, 20.36807643020595], [83.7005, 20.352], [83.7061, 20.368], [83.70585881006865, 20.36807643020595]], [[83.739848245745, 20.222178473673736], [83.7313, 20.2097], [83.7401, 20.222], [83.739848245745, 20.222178473673736]], [[82.7189, 20.6782], [82.69374623415362, 20.683943773303504], [82.6937, 20.6836], [82.7189, 20.6782]], [[82.68611138230463, 20.466907228350152], [82.7052, 20.5043], [82.6872, 20.4761], [82.68611138230463, 20.466907228350152]], [[82.69196674317192, 20.451464952949273], [82.68520113026278, 20.459220655552418], [82.6845, 20.4533], [82.69196674317192, 20.451464952949273]], [[82.6963, 20.4262], [82.6997, 20.4426], [82.6963, 20.446497560975622], [82.6963, 20.4262]], [[82.71489394761556, 20.362632881143686], [82.7299, 20.3832], [82.7148, 20.3678], [82.71489394761556, 20.362632881143686]], [[82.7195280870582, 20.35753649608778], [82.71495697262023, 20.359166505887362], [82.715, 20.3568], [82.7195280870582, 20.35753649608778]], [[82.8523, 20.3377], [82.85113067536889, 20.337594892167992], [82.8459, 20.2911], [82.8523, 20.3377]], [[82.82686338072669, 20.281398072669823], [82.8104, 20.2956], [82.8212, 20.2811], [82.82686338072669, 20.281398072669823]], [[82.8453, 20.2904], [82.8313589715536, 20.281634682713346], [82.8402, 20.2821], [82.8453, 20.2904]], [[82.8599, 20.2699], [82.85645519469976, 20.274736884154446], [82.85763479993071, 20.263129568681812], [82.8599, 20.2699]], [[82.847, 20.1958], [82.8609, 20.2314], [82.84614696638728, 20.195611995881407], [82.847, 20.1958]], [[82.81131660843859, 20.178231308787947], [82.81479959330143, 20.185396306220095], [82.8119, 20.1846], [82.81131660843859, 20.178231308787947]], [[82.81330688303201, 20.170153822696584], [82.81085242781302, 20.17316400362554], [82.8107, 20.1715], [82.81330688303201, 20.170153822696584]], [[83.58180446640812, 20.52226261729013], [83.5796, 20.5214], [83.5695, 20.4843], [83.58180446640812, 20.52226261729013]], [[83.6185, 20.4468], [83.65939764799957, 20.426222025532848], [83.6564, 20.4326], [83.6185, 20.4468]], [[83.5250957360253, 21.675225975591367], [83.5276, 21.6772], [83.54869520543862, 21.732137300972035], [83.5442, 21.7291], [83.5250957360253, 21.675225975591367]], [[83.6483, 21.7233], [83.5664, 21.7441], [83.56583979455114, 21.743721482804823], [83.6483, 21.7233]], [[83.69288143889742, 21.70072471817535], [83.6923, 21.7019], [83.6483, 21.7233], [83.69288143889742, 21.70072471817535]], [[83.8877, 21.5759], [83.9418, 21.5818], [83.88115229024157, 21.577507165122523], [83.8877, 21.5759]], [[83.959, 21.5756], [83.96141788576388, 21.57705520902455], [83.9418, 21.5818], [83.959, 21.5756]], [[83.9698, 21.5821], [83.9745, 21.5982], [83.96449690927219, 21.578908325024926], [83.9698, 21.5821]], [[83.9665648497879, 21.68925584868383], [83.9665, 21.6891], [83.9745, 21.5982], [83.9665648497879, 21.68925584868383]], [[84.2866, 21.7715], [84.28689379097003, 21.77205046033734], [84.2661, 21.7618], [84.2866, 21.7715]], [[84.3144, 22.0393], [84.29859603734441, 22.036014906639004], [84.3369, 22.0335], [84.3144, 22.0393]], [[84.2966, 22.0356], [84.285, 22.0147], [84.29706860260578, 22.035697406159628], [84.2966, 22.0356]], [[84.2674135683058, 22.104675897589658], [84.2667, 22.1043], [84.26774978546032, 22.027261897757786], [84.2674135683058, 22.104675897589658]], [[84.27809514874794, 22.123177391738608], [84.2776, 22.1233], [84.2779, 22.1102], [84.27809514874794, 22.123177391738608]], [[84.3396, 22.1302], [84.3396426299844, 22.130235200692503], [84.2986, 22.1181], [84.3396, 22.1302]], [[84.42191894246912, 22.173767630119222], [84.418, 22.1726], [84.3828, 22.1467], [84.42191894246912, 22.173767630119222]], [[84.43235000394543, 22.17687551487415], [84.4772, 22.1866], [84.496, 22.1376], [84.4764, 22.19], [84.43235000394543, 22.17687551487415]], [[84.6274, 21.7614], [84.63437822043309, 21.765040810660746], [84.6098, 21.7665], [84.6274, 21.7614]], [[83.9067, 21.175], [83.90181357476635, 21.175455257009347], [83.9494, 21.1511], [83.9067, 21.175]], [[84.23851694746728, 20.92279591227973], [84.1921, 20.9764], [84.2381, 20.9228], [84.23851694746728, 20.92279591227973]], [[83.4615, 21.0618], [83.4586015658483, 21.059467487028314], [83.4939, 21.0407], [83.4615, 21.0618]], [[83.83995002991026, 21.093997786640067], [83.83967403314918, 21.09376298342541], [83.8398, 21.0937], [83.83995002991026, 21.093997786640067]], [[83.8712, 21.1564], [83.86996520695863, 21.15357336532697], [83.8716941846279, 21.157005124034153], [83.8712, 21.1564]], [[83.8870413908997, 21.175797621509826], [83.8906, 21.1765], [83.89240977750369, 21.18237115612695], [83.8870413908997, 21.175797621509826]], [[83.84553413725061, 21.526716410874805], [83.84907526697985, 21.519471849637057], [83.8459, 21.5266], [83.84553413725061, 21.526716410874805]], [[83.88258024158766, 21.444256600517498], [83.88493570490942, 21.43826358624312], [83.8851, 21.4386], [83.88258024158766, 21.444256600517498]], [[83.8902, 21.2948], [83.8885, 21.282], [83.88924943896635, 21.281016865011892], [83.8902, 21.2948]], [[83.90880214525717, 21.250335487206], [83.91077037710791, 21.241935354843026], [83.9119, 21.2456], [83.90880214525717, 21.250335487206]], [[83.6075, 21.8329], [83.58079151664468, 21.829524206564756], [83.59, 21.8258], [83.6075, 21.8329]], [[84.23006898452101, 21.97511206689989], [84.2035, 21.978], [84.2295, 21.9745], [84.23006898452101, 21.97511206689989]], [[84.8073, 20.1154], [84.7978, 20.0923], [84.79831795763515, 20.09131628201075], [84.8073, 20.1154]], [[84.90800051551552, 19.909371526526527], [84.9073, 19.9075], [84.9278, 19.9081], [84.90800051551552, 19.909371526526527]], [[84.9399, 19.8974], [84.936, 19.8745], [84.94513140918022, 19.8984111126987], [84.9399, 19.8974]], [[85.15662748807723, 19.70479005357882], [85.1613, 19.6963], [85.16765406201233, 19.69090053885337], [85.15662748807723, 19.70479005357882]], [[85.1824, 19.6721], [85.182151048844, 19.67263955287003], [85.173, 19.5593], [85.1824, 19.6721]], [[84.64784088240987, 20.202583849577508], [84.6492, 20.2033], [84.64953614157986, 20.20752044428054], [84.64784088240987, 20.202583849577508]], [[84.65970751732344, 20.23713949044587], [84.6651, 20.2441], [84.6724, 20.2741], [84.65970751732344, 20.23713949044587]], [[84.70069631921673, 20.27794271001709], [84.6962, 20.2811], [84.6724, 20.2741], [84.70069631921673, 20.27794271001709]], [[84.71332102472181, 20.269077713048013], [84.73519292575088, 20.244892437871627], [84.7281, 20.2587], [84.71332102472181, 20.269077713048013]], [[84.7358936826815, 20.24411756241949], [84.736, 20.244], [84.7657, 20.2459], [84.7358936826815, 20.24411756241949]], [[86.0877201545885, 20.089522670002676], [86.0759, 20.0834], [86.07776434016199, 20.0791459147213], [86.0884, 20.0861], [86.0877201545885, 20.089522670002676]], [[86.11569621371478, 20.063593247791328], [86.1102, 20.0666], [86.10874617383185, 20.06608211342508], [86.11569621371478, 20.063593247791328]], [[86.12707659179888, 20.057184741397077], [86.1272, 20.0573], [86.12642352465643, 20.057724777687955], [86.12707659179888, 20.057184741397077]], [[86.1235, 20.0391], [86.1685, 20.0409], [86.12340730150561, 20.039211506884573], [86.1235, 20.0391]], [[86.17673114100647, 20.04986405082212], [86.19078918918922, 20.051370270270272], [86.18084668684385, 20.054346049371038], [86.17673114100647, 20.04986405082212]], [[86.0383646626893, 20.29006512161542], [86.0406, 20.2829], [86.0667, 20.2663], [86.0383646626893, 20.29006512161542]], [[86.0224, 20.3569], [86.01165468533436, 20.375680941285175], [86.02785134427134, 20.323764377958536], [86.0224, 20.3569]], [[86.0259, 20.4024], [86.0109, 20.3781], [86.01112454842878, 20.3773802353394], [86.0259, 20.4024]], [[86.0294, 20.3951], [86.03045032810272, 20.395153181169757], [86.0259, 20.4024], [86.0294, 20.3951]], [[86.0893, 20.3618], [86.0656, 20.3839], [86.0452, 20.3959], [86.0893, 20.3618]], [[86.1303, 20.3572], [86.13224892911781, 20.358442299847017], [86.1074, 20.3654], [86.1303, 20.3572]], [[86.19442456421892, 20.369236253297178], [86.1901, 20.3754], [86.1645, 20.379], [86.19442456421892, 20.369236253297178]], [[86.2212, 20.3605], [86.23746600121605, 20.36457498986623], [86.21190214338145, 20.363533692194764], [86.2212, 20.3605]], [[85.0261, 19.9011], [84.9756, 19.9043], [84.95343185654008, 19.90001540084388], [85.0261, 19.9011]], [[85.07773729155132, 19.922378358985714], [85.0508, 19.9157], [85.0261, 19.9011], [85.07773729155132, 19.922378358985714]], [[85.1652, 19.9037], [85.2107, 19.9123], [85.16498463179747, 19.903852595006057], [85.1652, 19.9037]], [[85.2432, 19.9061], [85.2458722405154, 19.907005254115962], [85.2107, 19.9123], [85.2432, 19.9061]], [[85.4141, 20.1295], [85.41276150192265, 20.12987661162633], [85.41384383301708, 20.12874508366396], [85.4141, 20.1295]], [[85.3702, 20.1782], [85.36345821884707, 20.18366885743874], [85.36827684703925, 20.173734154869678], [85.3702, 20.1782]], [[85.3559, 20.1898], [85.3468, 20.1875], [85.3587353448276, 20.1875], [85.3559, 20.1898]], [[85.3306, 20.1817], [85.32766855470756, 20.17977998904822], [85.34, 20.171], [85.3306, 20.1817]], [[85.3135, 20.1705], [85.3134543264273, 20.169991065904195], [85.322938223632, 20.176681760507496], [85.3135, 20.1705]], [[85.2489, 20.1306], [85.24743215577284, 20.12281404366462], [85.2717, 20.1489], [85.2489, 20.1306]], [[85.23515819423369, 20.11900220030349], [85.241, 20.1159], [85.24347859206325, 20.11856428462825], [85.23515819423369, 20.11900220030349]], [[85.20576476642462, 20.198101749671235], [85.1998, 20.19], [85.20009008475814, 20.188369523600755], [85.20576476642462, 20.198101749671235]], [[85.22652426035503, 20.22229289940828], [85.2252, 20.2245], [85.22263828032582, 20.221020498867745], [85.22652426035503, 20.22229289940828]], [[85.2393, 20.209], [85.24335120183136, 20.210165051507058], [85.23751164906687, 20.211636434880788], [85.2393, 20.209]], [[85.25664701492536, 20.226559381663115], [85.2554, 20.2265], [85.2546, 20.2134], [85.25664701492536, 20.226559381663115]], [[85.3411, 20.2521], [85.34003927188226, 20.252487451587914], [85.33973784378438, 20.251432453245325], [85.3411, 20.2521]], [[85.32876472064359, 20.27665913105518], [85.3284, 20.2763], [85.3244, 20.2582], [85.32876472064359, 20.27665913105518]], [[85.33035762054314, 20.278227618695734], [85.33182376033058, 20.2778826446281], [85.3545, 20.302], [85.33035762054314, 20.278227618695734]], [[85.3974, 20.2581], [85.39835048673855, 20.258022634800348], [85.3953, 20.2779], [85.3974, 20.2581]], [[85.406, 20.2574], [85.4195, 20.2736], [85.3987815853739, 20.257987545376544], [85.406, 20.2574]], [[85.7339, 20.4105], [85.7163, 20.4041], [85.71612139822325, 20.403736401497977], [85.7339, 20.4105]], [[85.7713, 20.404], [85.7675, 20.4159], [85.76679727783379, 20.415162998703728], [85.7713, 20.404]], [[85.7852, 20.4338], [85.7795, 20.4235], [85.77979356223176, 20.422892274678112], [85.7852, 20.4338]], [[85.8007, 20.4357], [85.7931, 20.4279], [85.8011517707821, 20.435559001475653], [85.8007, 20.4357]], [[85.8241, 20.4081], [85.8418, 20.4107], [85.82398186839967, 20.408448258094467], [85.8241, 20.4081]], [[86.05324350086654, 20.163751689774703], [86.0533, 20.1639], [86.0375, 20.1792], [86.05324350086654, 20.163751689774703]], [[86.0319, 20.1424], [86.03260649350649, 20.1408], [86.0445, 20.1408], [86.0319, 20.1424]], [[86.0353, 20.1347], [86.0652, 20.1236], [86.03287225647966, 20.140198125031333], [86.0353, 20.1347]], [[86.0792, 20.1053], [86.07260363323836, 20.105615364147965], [86.08702484740692, 20.093023182020293], [86.0855, 20.1007], [86.0652, 20.1236], [86.0792, 20.1053]], [[85.8546, 20.2014], [85.8872, 20.1835], [85.852, 20.2036], [85.8374, 20.1949], [85.8546, 20.2014]], [[85.8971, 20.1119], [85.8796652631579, 20.113399762308998], [85.8799, 20.1129], [85.8971, 20.1119]], [[86.06377996029283, 20.106037213053728], [86.029, 20.1077], [86.0563, 20.1027], [86.06377996029283, 20.106037213053728]], [[86.2009, 20.0523], [86.20045047694754, 20.052258664546898], [86.2027917910448, 20.045702985074552], [86.2009, 20.0523]], [[86.2114, 20.0429], [86.20520158730159, 20.03895555555555], [86.2054, 20.0384], [86.2114, 20.0429]], [[86.2302, 20.043], [86.22076329394388, 20.035660339734125], [86.2211, 20.0354], [86.2302, 20.043]], [[86.26988328223423, 20.041632448854447], [86.2781, 20.0547], [86.2695, 20.0418], [86.26988328223423, 20.041632448854447]], [[86.3135, 20.0253], [86.27234151857829, 20.04055783521812], [86.31581976241279, 20.021551398419927], [86.3135, 20.0253]], [[86.35057959748892, 19.975418509970456], [86.34637613469987, 19.977760439238644], [86.3478, 19.9753], [86.35057959748892, 19.975418509970456]], [[85.21213205784875, 19.685860952094004], [85.20938989406189, 19.68387411485921], [85.2122, 19.6851], [85.21213205784875, 19.685860952094004]], [[85.1984, 19.7076], [85.21202432432432, 19.687067567567563], [85.2112, 19.6963], [85.1984, 19.7076]], [[85.2195, 19.7408], [85.21826331813304, 19.738854130901288], [85.2498, 19.7439], [85.2195, 19.7408]], [[85.5075, 19.9274], [85.5204, 19.9306], [85.50764799397507, 19.92758234971929], [85.5075, 19.9274]], [[85.51413874038813, 19.96415595020139], [85.499, 19.9463], [85.5109, 19.9529], [85.51413874038813, 19.96415595020139]], [[85.5263, 19.9785], [85.52379867317073, 19.97554971707317], [85.52762579439253, 19.976365794392525], [85.5263, 19.9785]], [[85.5345, 19.9653], [85.53099508293839, 19.97094206161136], [85.5318, 19.9586], [85.5345, 19.9653]], [[85.56239121694757, 19.954451584969846], [85.5504, 19.9526], [85.562, 19.9527], [85.56239121694757, 19.954451584969846]], [[85.6872, 20.0927], [85.6926, 20.0987], [85.6712, 20.0876], [85.6872, 20.0927]], [[87.1764, 21.8135], [87.1200499922994, 21.848945972585863], [87.122, 21.8422], [87.1764, 21.8135]], [[87.0526, 21.6847], [87.0365, 21.6973], [87.0504740312213, 21.683508635853485], [87.0526, 21.6847]], [[87.03236379512522, 21.67335990451462], [87.03427728626114, 21.67443219906422], [87.0324, 21.6736], [87.03236379512522, 21.67335990451462]], [[87.0064, 21.5987], [87.00571941536822, 21.59975054345727], [86.9744, 21.5849], [87.0064, 21.5987]], [[86.9583, 21.5847], [86.9603, 21.5807], [86.9627, 21.5935], [86.9583, 21.5847]], [[86.9562, 21.5731], [86.95617058193501, 21.57394944662621], [86.9203, 21.5914], [86.9562, 21.5731]], [[86.902, 21.5987], [86.9022, 21.593], [86.9067, 21.5996], [86.902, 21.5987]], [[86.4889, 21.3839], [86.5319, 21.426], [86.48590340801515, 21.382159498264436], [86.4889, 21.3839]], [[86.3529, 21.2842], [86.358, 21.2993], [86.3574948913636, 21.302317000233636], [86.3529, 21.2842]], [[86.3754, 21.2235], [86.4064515406867, 21.219765953968054], [86.3744, 21.2242], [86.36533367875647, 21.240260838197678], [86.3519, 21.2372], [86.3754, 21.2235]], [[86.3489293968208, 21.201709109385206], [86.3533, 21.2111], [86.3519, 21.2372], [86.3489293968208, 21.201709109385206]], [[86.4434, 21.2021], [86.433, 21.2203], [86.446, 21.1955], [86.4434, 21.2021]], [[86.44823035714286, 21.15492611607143], [86.4283, 21.1624], [86.4477, 21.1543], [86.44823035714286, 21.15492611607143]], [[86.6248, 21.0735], [86.6309, 21.0862], [86.6306, 21.093], [86.6248, 21.0735]], [[86.6434898451539, 21.063735725482697], [86.63129166029073, 21.06951071155318], [86.6427, 21.0625], [86.6434898451539, 21.063735725482697]], [[86.6422, 21.0806], [86.64524280573143, 21.06647826057981], [86.6489, 21.0722], [86.6422, 21.0806]], [[86.7576, 21.1967], [86.75769446494465, 21.196519188191882], [86.75799900924304, 21.197225826134233], [86.7576, 21.1967]], [[84.76613391438576, 21.151283743081958], [84.7894, 21.1315], [84.7887, 21.1385], [84.76613391438576, 21.151283743081958]], [[84.99871788926322, 21.436218340413067], [85.0264, 21.448], [84.9996, 21.4393], [84.99871788926322, 21.436218340413067]], [[85.1172, 21.4547], [85.15239884134735, 21.462132765041794], [85.1364, 21.4634], [85.1172, 21.4547]], [[85.1574422362463, 21.463197753770455], [85.1584, 21.4634], [85.1801, 21.5008], [85.1574422362463, 21.463197753770455]], [[85.203, 21.5216], [85.2129, 21.5551], [85.21163117618333, 21.556997520302417], [85.203, 21.5216]], [[85.2070151736746, 21.563900731261402], [85.1907, 21.5883], [85.18584863331614, 21.58903599793708], [85.2070151736746, 21.563900731261402]], [[85.2092, 21.6754], [85.253, 21.675], [85.2428, 21.6802], [85.2092, 21.6754]], [[85.26688136069721, 21.623143202538255], [85.267, 21.6227], [85.2918, 21.6004], [85.26688136069721, 21.623143202538255]], [[85.3014, 21.5311], [85.32118701763352, 21.534234577050857], [85.3209, 21.5352], [85.3014, 21.5311]], [[85.32251007583967, 21.529784290357437], [85.33196184210526, 21.48288552631579], [85.3286, 21.5093], [85.32251007583967, 21.529784290357437]], [[85.33205765371025, 21.482132720848057], [85.3214, 21.4652], [85.3321, 21.4818], [85.33205765371025, 21.482132720848057]], [[85.35863437952004, 21.245506659719734], [85.36452496637071, 21.239453349475394], [85.3611, 21.2443], [85.35863437952004, 21.245506659719734]], [[85.37552780269058, 21.223883298079357], [85.3799, 21.1993], [85.3823, 21.2143], [85.37552780269058, 21.223883298079357]], [[85.46840961903311, 21.12276497971633], [85.38889472883412, 21.188761399798835], [85.464, 21.1239], [85.46840961903311, 21.12276497971633]], [[85.683, 21.1864], [85.6634, 21.1666], [85.68377750639684, 21.18568469411491], [85.683, 21.1864]], [[85.7405, 21.1394], [85.72792015086206, 21.141971120689668], [85.71265007567989, 21.138793100922808], [85.7405, 21.1394]], [[85.75184185282082, 21.149065231099485], [85.7515, 21.1492], [85.7405, 21.1394], [85.75184185282082, 21.149065231099485]], [[85.75825528700913, 21.146536858006012], [85.76193457381615, 21.144970428969362], [85.7619, 21.1451], [85.75825528700913, 21.146536858006012]], [[86.0366, 21.1606], [86.0617, 21.1531], [86.06192508065233, 21.153623657027854], [86.0366, 21.1606]], [[86.06501143667298, 21.160804158790178], [86.06645056781932, 21.164152341457193], [86.0658, 21.1639], [86.06501143667298, 21.160804158790178]], [[86.0823, 21.1703], [86.08663180228491, 21.16582403823735], [86.0894, 21.1684], [86.0823, 21.1703]], [[86.23316754855993, 21.041091041527128], [86.2344, 21.0403], [86.2606, 21.0394], [86.23316754855993, 21.041091041527128]], [[86.2897, 21.0098], [86.2816, 21.0224], [86.2606, 21.0394], [86.2897, 21.0098]], [[86.321, 21.0549], [86.3246, 21.0602], [86.32351559770402, 21.063564836536063], [86.321, 21.0549]], [[86.28822409152086, 21.119976716016154], [86.28779978118162, 21.12147877461706], [86.287, 21.1204], [86.28822409152086, 21.119976716016154]], [[86.2707, 21.1402], [86.2853175955468, 21.13026571176431], [86.2835, 21.1367], [86.2707, 21.1402]], [[86.27080382038118, 21.140937124706294], [86.2917, 21.1755], [86.2717, 21.1473], [86.27080382038118, 21.140937124706294]], [[86.6421, 20.7884], [86.6425670558799, 20.788792326939113], [86.6371, 20.798], [86.6421, 20.7884]], [[86.6570590797042, 20.795892851273624], [86.6567, 20.7968], [86.65563112671347, 20.796154062186563], [86.6570590797042, 20.795892851273624]], [[86.75589268292683, 20.749521951219503], [86.7604, 20.76], [86.7551, 20.7694], [86.75589268292683, 20.749521951219503]], [[86.7564, 20.7368], [86.75849894386857, 20.737170897711714], [86.75631104937291, 20.739030608033023], [86.7564, 20.7368]], [[86.77945592473979, 20.740874139311448], [86.7787, 20.7414], [86.77657821030529, 20.740365627523826], [86.77945592473979, 20.740874139311448]], [[86.8216, 20.7457], [86.8016, 20.7568], [86.80040826200822, 20.753525994528086], [86.8216, 20.7457]], [[85.1637, 20.6754], [85.16675272980501, 20.670671991643463], [85.16591871757626, 20.680077796223262], [85.1637, 20.6754]], [[85.1719, 20.6627], [85.1834893872096, 20.67317072049054], [85.16985444724443, 20.665868112194588], [85.1719, 20.6627]], [[85.1978, 20.6861], [85.19768348602302, 20.686261420405604], [85.19744583149537, 20.68578001764447], [85.1978, 20.6861]], [[85.2052, 20.7194], [85.1887, 20.7011], [85.18910550373134, 20.700465298507464], [85.2052, 20.7194]], [[85.258, 20.9737], [85.2588406919275, 20.97967825370675], [85.2409, 20.9621], [85.258, 20.9737]], [[85.2598, 20.9865], [85.236, 21.0114], [85.25933007730147, 20.983158327477163], [85.2598, 20.9865]], [[85.17009715558514, 21.05077415704447], [85.1713, 21.0452], [85.236, 21.0114], [85.17009715558514, 21.05077415704447]], [[85.18036566482327, 21.076690502524638], [85.1672, 21.0642], [85.16841430228878, 21.05857274549098], [85.18036566482327, 21.076690502524638]], [[85.2301, 21.0724], [85.1867, 21.0827], [85.18577519996168, 21.081822625604673], [85.2301, 21.0724]], [[85.2911, 21.1804], [85.2727, 21.1747], [85.27258520264577, 21.174424324663452], [85.2911, 21.1804]], [[86.2838592780968, 20.942278687448734], [86.289, 20.9612], [86.28654131270844, 20.97328418647556], [86.2838592780968, 20.942278687448734]], [[86.2806, 20.9046], [86.28191714057807, 20.904194390484236], [86.28082410942572, 20.907190803470872], [86.2806, 20.9046]], [[86.3103352771763, 20.89544311000862], [86.3102, 20.8957], [86.30794609424615, 20.896178851771882], [86.3103352771763, 20.89544311000862]], [[86.6143149929889, 20.80299065904433], [86.6135, 20.8025], [86.6143977665996, 20.79520993963783], [86.6143149929889, 20.80299065904433]], [[86.63217656415694, 20.792333404029687], [86.6275, 20.7986], [86.61481784482758, 20.795114827586207], [86.6220100486416, 20.793486404081147], [86.6222, 20.7968], [86.63217656415694, 20.792333404029687]], [[86.514, 20.6993], [86.5109, 20.6874], [86.5148656253222, 20.698485725332507], [86.514, 20.6993]], [[86.52479398194585, 20.68914633901705], [86.51973240399789, 20.693907653866386], [86.5241, 20.6882], [86.52479398194585, 20.68914633901705]], [[86.55520798175601, 20.7061174458381], [86.5365922423974, 20.69477540596398], [86.5417, 20.6941], [86.55520798175601, 20.7061174458381]], [[86.5459, 20.7217], [86.55590687779177, 20.706739222311302], [86.5562, 20.707], [86.5459, 20.7217]], [[86.5611, 20.738], [86.56062975878942, 20.737795431789745], [86.5459, 20.7217], [86.5611, 20.738]], [[86.5463, 20.7301], [86.55890069582509, 20.73704324055668], [86.54483255395684, 20.73092320143885], [86.5463, 20.7301]], [[86.5381, 20.7347], [86.54321008777204, 20.731833365396174], [86.5407, 20.7521], [86.5381, 20.7347]], [[86.5642, 20.7738], [86.5534, 20.756], [86.56613136966975, 20.774336972733295], [86.5642, 20.7738]], [[86.61088884481903, 20.77402677243431], [86.60576681653215, 20.773074600509183], [86.6082, 20.7722], [86.61088884481903, 20.77402677243431]], [[86.6139, 20.7804], [86.61581893527541, 20.777376223202378], [86.6213, 20.7811], [86.6139, 20.7804]], [[85.69768332491158, 21.136283969176354], [85.6942, 21.1357], [85.6812, 21.1122], [85.69768332491158, 21.136283969176354]], [[86.02363602730676, 20.72756630698084], [86.0092, 20.7246], [86.0235, 20.7273], [86.02363602730676, 20.72756630698084]], [[84.87409484755376, 21.175339021507913], [84.8777, 21.1784], [84.8736, 21.1768], [84.87409484755376, 21.175339021507913]], [[85.66292073879357, 22.034526452684005], [85.6622, 22.034], [85.66233561000323, 22.033611946760004], [85.66292073879357, 22.034526452684005]], [[85.66527894736842, 22.025189473684208], [85.6687, 22.0154], [85.66897927146574, 22.01532194275802], [85.66527894736842, 22.025189473684208]], [[85.70068525495292, 22.005620136407924], [85.6971, 21.9926], [85.7021, 22.0052], [85.70068525495292, 22.005620136407924]], [[85.70559146589439, 21.985146379937152], [85.7061, 21.9847], [85.7376, 21.9929], [85.70559146589439, 21.985146379937152]], [[86.34081125963682, 21.329470381946106], [86.3551749469496, 21.316173965517244], [86.3543, 21.3214], [86.34081125963682, 21.329470381946106]]], [[[84.3293, 18.7872], [84.3396, 18.7894], [84.3394, 18.7787], [84.3293, 18.7872]]], [[[84.3497, 18.7919], [84.3532, 18.7898], [84.3497, 18.7887], [84.3497, 18.7919]]], [[[86.7838, 20.3616], [86.7808, 20.3615], [86.7845, 20.364], [86.7838, 20.3616]]], [[[86.7926, 20.3835], [86.7903, 20.3823], [86.791, 20.3864], [86.7926, 20.3835]]], [[[86.7965, 20.4001], [86.8055, 20.3958], [86.8075, 20.3735], [86.7989, 20.3645], [86.7958, 20.3951], [86.799, 20.3864], [86.8029, 20.3902], [86.7965, 20.4001]]], [[[86.7902, 20.4326], [86.8, 20.4431], [86.7937, 20.4932], [86.8082, 20.4531], [86.7879, 20.3835], [86.7902, 20.4326]]], [[[87.0132, 20.7172], [87.0086, 20.7099], [87.0066, 20.7119], [87.0132, 20.7172]]], [[[87.0062, 20.7151], [87.0017, 20.7115], [87.0081, 20.7195], [87.0062, 20.7151]]], [[[87.0533, 20.7304], [87.0563, 20.7329], [87.0537, 20.7296], [87.0533, 20.7304]]], [[[87.0779, 20.7439], [87.0735, 20.7275], [87.0696, 20.7335], [87.0779, 20.7439]]], [[[87.0507, 20.7379], [87.0525, 20.7376], [87.0531, 20.7371], [87.0507, 20.7379]]], [[[87.0723, 20.749], [87.0703, 20.7384], [87.0688, 20.7376], [87.0723, 20.749]]], [[[87.0582, 20.7452], [87.0596, 20.7439], [87.0494, 20.744], [87.0582, 20.7452]]], [[[87.0981, 20.7482], [87.0973, 20.7475], [87.0968, 20.7482], [87.0981, 20.7482]]], [[[87.1017, 20.7515], [87.102, 20.7507], [87.0994, 20.75], [87.1017, 20.7515]]], [[[87.0824, 20.7639], [87.0975, 20.7549], [87.0731, 20.7535], [87.0824, 20.7639]]], [[[87.0748, 20.789], [87.0748, 20.7674], [87.0688, 20.7935], [87.0748, 20.789]]], [[[86.9836, 20.7804], [86.9785, 20.7788], [86.9826, 20.7848], [86.9836, 20.7804]]], [[[86.9878, 20.804], [86.9866, 20.802], [86.986, 20.8026], [86.9878, 20.804]]], [[[87.4137, 21.5602], [87.419, 21.5787], [87.4301, 21.5862], [87.4166, 21.57], [87.4137, 21.5602]]]]}}]}